[{"OBJECT_NAME":"METOP-B","OBJECT_ID":"2012-049A","EPOCH":"2026-04-27T05:25:38.623872","MEAN_MOTION":14.21433454,"ECCENTRICITY":0.00034206,"INCLINATION":98.6547,"RA_OF_ASC_NODE":169.7314,"ARG_OF_PERICENTER":122.5374,"MEAN_ANOMALY":237.6134,"EPHEMERIS_TYPE":0,"CLASSIFICATION_TYPE":"U","NORAD_CAT_ID":38771,"ELEMENT_SET_NO":999,"REV_AT_EPOCH":70602,"BSTAR":7.6173769e-5,"MEAN_MOTION_DOT":1.23e-6,"MEAN_MOTION_DDOT":0},{"OBJECT_NAME":"SARAL","OBJECT_ID":"2013-009A","EPOCH":"2026-04-27T06:34:14.689632","MEAN_MOTION":14.32843154,"ECCENTRICITY":0.00029866,"INCLINATION":98.5565,"RA_OF_ASC_NODE":304.4841,"ARG_OF_PERICENTER":81.5376,"MEAN_ANOMALY":278.6147,"EPHEMERIS_TYPE":0,"CLASSIFICATION_TYPE":"U","NORAD_CAT_ID":39086,"ELEMENT_SET_NO":999,"REV_AT_EPOCH":68831,"BSTAR":6.2129376e-5,"MEAN_MOTION_DOT":1.26e-6,"MEAN_MOTION_DDOT":0},{"OBJECT_NAME":"METOP-C","OBJECT_ID":"2018-087A","EPOCH":"2026-04-27T05:57:16.695360","MEAN_MOTION":14.21512034,"ECCENTRICITY":7.878e-5,"INCLINATION":98.6678,"RA_OF_ASC_NODE":177.774,"ARG_OF_PERICENTER":39.827,"MEAN_ANOMALY":320.2965,"EPHEMERIS_TYPE":0,"CLASSIFICATION_TYPE":"U","NORAD_CAT_ID":43689,"ELEMENT_SET_NO":999,"REV_AT_EPOCH":38759,"BSTAR":7.0549542e-5,"MEAN_MOTION_DOT":1.11e-6,"MEAN_MOTION_DDOT":0},{"OBJECT_NAME":"OTB-3-GAZELLE","OBJECT_ID":"2022-127A","EPOCH":"2026-04-27T05:18:58.429440","MEAN_MOTION":14.42655504,"ECCENTRICITY":0.00128558,"INCLINATION":98.3937,"RA_OF_ASC_NODE":109.7063,"ARG_OF_PERICENTER":348.1171,"MEAN_ANOMALY":11.9714,"EPHEMERIS_TYPE":0,"CLASSIFICATION_TYPE":"U","NORAD_CAT_ID":54023,"ELEMENT_SET_NO":999,"REV_AT_EPOCH":18701,"BSTAR":6.5979866e-5,"MEAN_MOTION_DOT":1.76e-6,"MEAN_MOTION_DDOT":0},{"OBJECT_NAME":"EOS-6 (OCEANSAT-3)","OBJECT_ID":"2022-158A","EPOCH":"2026-04-27T06:27:44.131392","MEAN_MOTION":14.46980182,"ECCENTRICITY":0.00023165,"INCLINATION":98.3499,"RA_OF_ASC_NODE":216.1475,"ARG_OF_PERICENTER":106.1251,"MEAN_ANOMALY":254.0197,"EPHEMERIS_TYPE":0,"CLASSIFICATION_TYPE":"U","NORAD_CAT_ID":54361,"ELEMENT_SET_NO":999,"REV_AT_EPOCH":18047,"BSTAR":9.8299043e-5,"MEAN_MOTION_DOT":3.14e-6,"MEAN_MOTION_DDOT":0},{"OBJECT_NAME":"KINEIS-1B","OBJECT_ID":"2024-114A","EPOCH":"2026-04-27T07:08:47.302944","MEAN_MOTION":14.80534065,"ECCENTRICITY":9.569e-5,"INCLINATION":97.9861,"RA_OF_ASC_NODE":141.7234,"ARG_OF_PERICENTER":241.5503,"MEAN_ANOMALY":118.5612,"EPHEMERIS_TYPE":0,"CLASSIFICATION_TYPE":"U","NORAD_CAT_ID":60079,"ELEMENT_SET_NO":999,"REV_AT_EPOCH":9987,"BSTAR":0.00015060338,"MEAN_MOTION_DOT":1.101e-5,"MEAN_MOTION_DDOT":0},{"OBJECT_NAME":"KINEIS-1C","OBJECT_ID":"2024-114C","EPOCH":"2026-04-27T07:57:26.254368","MEAN_MOTION":14.80536987,"ECCENTRICITY":0.00016859,"INCLINATION":97.9879,"RA_OF_ASC_NODE":141.5936,"ARG_OF_PERICENTER":58.7189,"MEAN_ANOMALY":301.4188,"EPHEMERIS_TYPE":0,"CLASSIFICATION_TYPE":"U","NORAD_CAT_ID":60081,"ELEMENT_SET_NO":999,"REV_AT_EPOCH":9985,"BSTAR":0.00015382138,"MEAN_MOTION_DOT":1.126e-5,"MEAN_MOTION_DDOT":0},{"OBJECT_NAME":"KINEIS-1D","OBJECT_ID":"2024-114D","EPOCH":"2026-04-27T08:14:06.425088","MEAN_MOTION":14.76190012,"ECCENTRICITY":0.0001994,"INCLINATION":97.9914,"RA_OF_ASC_NODE":138.0299,"ARG_OF_PERICENTER":49.1462,"MEAN_ANOMALY":310.992,"EPHEMERIS_TYPE":0,"CLASSIFICATION_TYPE":"U","NORAD_CAT_ID":60082,"ELEMENT_SET_NO":999,"REV_AT_EPOCH":9962,"BSTAR":0.00010910121,"MEAN_MOTION_DOT":7.04e-6,"MEAN_MOTION_DDOT":0},{"OBJECT_NAME":"KINEIS-1E","OBJECT_ID":"2024-114E","EPOCH":"2026-04-27T05:05:51.512928","MEAN_MOTION":14.80446701,"ECCENTRICITY":0.00022138,"INCLINATION":97.9281,"RA_OF_ASC_NODE":141.3787,"ARG_OF_PERICENTER":57.3389,"MEAN_ANOMALY":302.8036,"EPHEMERIS_TYPE":0,"CLASSIFICATION_TYPE":"U","NORAD_CAT_ID":60083,"ELEMENT_SET_NO":999,"REV_AT_EPOCH":9984,"BSTAR":-0.00026357198,"MEAN_MOTION_DOT":-2.066e-5,"MEAN_MOTION_DDOT":0},{"OBJECT_NAME":"KINEIS-1A","OBJECT_ID":"2024-114F","EPOCH":"2026-04-27T05:55:51.237120","MEAN_MOTION":14.80484057,"ECCENTRICITY":0.00025791,"INCLINATION":97.9251,"RA_OF_ASC_NODE":141.5296,"ARG_OF_PERICENTER":310.4189,"MEAN_ANOMALY":49.6797,"EPHEMERIS_TYPE":0,"CLASSIFICATION_TYPE":"U","NORAD_CAT_ID":60084,"ELEMENT_SET_NO":999,"REV_AT_EPOCH":9985,"BSTAR":0.00014363773,"MEAN_MOTION_DOT":1.047e-5,"MEAN_MOTION_DDOT":0},{"OBJECT_NAME":"KINEIS-3C","OBJECT_ID":"2024-172A","EPOCH":"2026-04-27T07:20:00.896352","MEAN_MOTION":14.72287967,"ECCENTRICITY":7.13e-5,"INCLINATION":98.041,"RA_OF_ASC_NODE":207.7461,"ARG_OF_PERICENTER":27.5425,"MEAN_ANOMALY":332.582,"EPHEMERIS_TYPE":0,"CLASSIFICATION_TYPE":"U","NORAD_CAT_ID":61220,"ELEMENT_SET_NO":999,"REV_AT_EPOCH":8558,"BSTAR":0.00035449013,"MEAN_MOTION_DOT":2.19e-5,"MEAN_MOTION_DDOT":0},{"OBJECT_NAME":"KINEIS-3D","OBJECT_ID":"2024-172B","EPOCH":"2026-04-27T05:32:21.681600","MEAN_MOTION":14.72290116,"ECCENTRICITY":6.421e-5,"INCLINATION":98.0409,"RA_OF_ASC_NODE":207.6833,"ARG_OF_PERICENTER":39.9993,"MEAN_ANOMALY":320.1262,"EPHEMERIS_TYPE":0,"CLASSIFICATION_TYPE":"U","NORAD_CAT_ID":61221,"ELEMENT_SET_NO":999,"REV_AT_EPOCH":8585,"BSTAR":0.00036368514,"MEAN_MOTION_DOT":2.248e-5,"MEAN_MOTION_DDOT":0},{"OBJECT_NAME":"KINEIS-3E","OBJECT_ID":"2024-172C","EPOCH":"2026-04-27T05:07:19.742880","MEAN_MOTION":14.72276893,"ECCENTRICITY":8.976e-5,"INCLINATION":98.0402,"RA_OF_ASC_NODE":207.6537,"ARG_OF_PERICENTER":92.2574,"MEAN_ANOMALY":267.8736,"EPHEMERIS_TYPE":0,"CLASSIFICATION_TYPE":"U","NORAD_CAT_ID":61222,"ELEMENT_SET_NO":999,"REV_AT_EPOCH":8585,"BSTAR":0.00035009739,"MEAN_MOTION_DOT":2.162e-5,"MEAN_MOTION_DDOT":0},{"OBJECT_NAME":"KINEIS-3A","OBJECT_ID":"2024-172D","EPOCH":"2026-04-27T04:43:50.560608","MEAN_MOTION":14.72304534,"ECCENTRICITY":9.609e-5,"INCLINATION":98.0401,"RA_OF_ASC_NODE":207.7382,"ARG_OF_PERICENTER":213.4465,"MEAN_ANOMALY":146.6682,"EPHEMERIS_TYPE":0,"CLASSIFICATION_TYPE":"U","NORAD_CAT_ID":61223,"ELEMENT_SET_NO":999,"REV_AT_EPOCH":8527,"BSTAR":0.00034788152,"MEAN_MOTION_DOT":2.149e-5,"MEAN_MOTION_DDOT":0},{"OBJECT_NAME":"KINEIS-3B","OBJECT_ID":"2024-172E","EPOCH":"2026-04-27T05:57:12.749472","MEAN_MOTION":14.72309292,"ECCENTRICITY":0.00014569,"INCLINATION":98.0396,"RA_OF_ASC_NODE":207.815,"ARG_OF_PERICENTER":184.5307,"MEAN_ANOMALY":175.5887,"EPHEMERIS_TYPE":0,"CLASSIFICATION_TYPE":"U","NORAD_CAT_ID":61224,"ELEMENT_SET_NO":999,"REV_AT_EPOCH":8585,"BSTAR":0.00035048113,"MEAN_MOTION_DOT":2.166e-5,"MEAN_MOTION_DDOT":0},{"OBJECT_NAME":"KINEIS-5C","OBJECT_ID":"2024-219A","EPOCH":"2026-04-26T01:37:56.898624","MEAN_MOTION":14.72300008,"ECCENTRICITY":0.00054358,"INCLINATION":97.9006,"RA_OF_ASC_NODE":276.3834,"ARG_OF_PERICENTER":90.5104,"MEAN_ANOMALY":269.6727,"EPHEMERIS_TYPE":0,"CLASSIFICATION_TYPE":"U","NORAD_CAT_ID":62081,"ELEMENT_SET_NO":999,"REV_AT_EPOCH":7608,"BSTAR":-9.841079e-6,"MEAN_MOTION_DOT":-1.1e-6,"MEAN_MOTION_DDOT":0},{"OBJECT_NAME":"KINEIS-5D","OBJECT_ID":"2024-219B","EPOCH":"2026-04-27T07:48:31.241376","MEAN_MOTION":14.72352068,"ECCENTRICITY":0.00063794,"INCLINATION":97.91,"RA_OF_ASC_NODE":277.5485,"ARG_OF_PERICENTER":81.3639,"MEAN_ANOMALY":278.8291,"EPHEMERIS_TYPE":0,"CLASSIFICATION_TYPE":"U","NORAD_CAT_ID":62082,"ELEMENT_SET_NO":999,"REV_AT_EPOCH":7627,"BSTAR":0.0001834191,"MEAN_MOTION_DOT":1.112e-5,"MEAN_MOTION_DDOT":0}]
