METOP-B                 
1 38771U 12049A   26117.22614148  .00000123  00000+0  76174-4 0  9991
2 38771  98.6547 169.7314 0003420 122.5374 237.6134 14.21433454706023
SARAL                   
1 39086U 13009A   26117.27378113  .00000126  00000+0  62129-4 0  9990
2 39086  98.5565 304.4841 0002986  81.5376 278.6147 14.32843154688311
METOP-C                 
1 43689U 18087A   26117.24810990  .00000111  00000+0  70550-4 0  9997
2 43689  98.6678 177.7740 0000787  39.8270 320.2965 14.21512034387592
OTB-3-GAZELLE           
1 54023U 22127A   26117.22150960  .00000176  00000+0  65980-4 0  9995
2 54023  98.3937 109.7063 0012855 348.1171  11.9714 14.42655504187013
EOS-6 (OCEANSAT-3)      
1 54361U 22158A   26117.26926078  .00000314  00000+0  98299-4 0  9992
2 54361  98.3499 216.1475 0002316 106.1251 254.0197 14.46980182180478
KINEIS-1B               
1 60079U 24114A   26117.29776971  .00001101  00000+0  15060-3 0  9996
2 60079  97.9861 141.7234 0000956 241.5503 118.5612 14.80534065 99879
KINEIS-1C               
1 60081U 24114C   26117.33155387  .00001126  00000+0  15382-3 0  9990
2 60081  97.9879 141.5936 0001685  58.7189 301.4188 14.80536987 99850
KINEIS-1D               
1 60082U 24114D   26117.34312992  .00000704  00000+0  10910-3 0  9992
2 60082  97.9914 138.0299 0001994  49.1462 310.9920 14.76190012 99629
KINEIS-1E               
1 60083U 24114E   26117.21240177 -.00002066  00000+0 -26357-3 0  9991
2 60083  97.9281 141.3787 0002213  57.3389 302.8036 14.80446701 99846
KINEIS-1A               
1 60084U 24114F   26117.24712080  .00001047  00000+0  14364-3 0  9993
2 60084  97.9251 141.5296 0002579 310.4189  49.6797 14.80484057 99854
KINEIS-3C               
1 61220U 24172A   26117.30556593  .00002190  00000+0  35449-3 0  9999
2 61220  98.0410 207.7461 0000713  27.5425 332.5820 14.72287967 85580
KINEIS-3D               
1 61221U 24172B   26117.23080650  .00002248  00000+0  36369-3 0  9994
2 61221  98.0409 207.6833 0000642  39.9993 320.1262 14.72290116 85852
KINEIS-3E               
1 61222U 24172C   26117.21342295  .00002162  00000+0  35010-3 0  9996
2 61222  98.0402 207.6537 0000897  92.2574 267.8736 14.72276893 85855
KINEIS-3A               
1 61223U 24172D   26117.19711297  .00002149  00000+0  34788-3 0  9992
2 61223  98.0401 207.7382 0000960 213.4465 146.6682 14.72304534 85275
KINEIS-3B               
1 61224U 24172E   26117.24806423  .00002166  00000+0  35048-3 0  9994
2 61224  98.0396 207.8150 0001456 184.5307 175.5887 14.72309292 85855
KINEIS-5C               
1 62081U 24219A   26116.06801966 -.00000110  00000+0 -98411-5 0  9998
2 62081  97.9006 276.3834 0005435  90.5104 269.6727 14.72300008 76084
KINEIS-5D               
1 62082U 24219B   26117.32536159  .00001112  00000+0  18342-3 0  9992
2 62082  97.9100 277.5485 0006379  81.3639 278.8291 14.72352068 76276
